CCSDS_OMM_VERS = 2.0
CREATION_DATE  = 
ORIGINATOR     = 

OBJECT_NAME    = STARLINK-35843
OBJECT_ID      = 2026-018T
CENTER_NAME    = EARTH
REF_FRAME      = TEME
TIME_SYSTEM    = UTC
MEAN_ELEMENT_THEORY = SGP/SGP4

EPOCH          = 2026-02-21T03:31:22.332864
MEAN_MOTION    = 15.75345727
ECCENTRICITY   = .0001438
INCLINATION    = 97.2825
RA_OF_ASC_NODE = 117.1378
ARG_OF_PERICENTER = 124.4877
MEAN_ANOMALY   = 235.6525

EPHEMERIS_TYPE = 0
CLASSIFICATION_TYPE = U
NORAD_CAT_ID   = 67606
ELEMENT_SET_NO = 999
REV_AT_EPOCH   = 470
BSTAR          = .21097E-2
MEAN_MOTION_DOT = .329193E-2
MEAN_MOTION_DDOT = 0

CCSDS_OMM_VERS = 2.0
CREATION_DATE  = 
ORIGINATOR     = 

OBJECT_NAME    = STARLINK-36351
OBJECT_ID      = 2026-018U
CENTER_NAME    = EARTH
REF_FRAME      = TEME
TIME_SYSTEM    = UTC
MEAN_ELEMENT_THEORY = SGP/SGP4

EPOCH          = 2026-02-21T03:11:33.525024
MEAN_MOTION    = 15.75313238
ECCENTRICITY   = .0001597
INCLINATION    = 97.2832
RA_OF_ASC_NODE = 117.1583
ARG_OF_PERICENTER = 117.3606
MEAN_ANOMALY   = 242.7822

EPHEMERIS_TYPE = 0
CLASSIFICATION_TYPE = U
NORAD_CAT_ID   = 67607
ELEMENT_SET_NO = 999
REV_AT_EPOCH   = 470
BSTAR          = .18064E-2
MEAN_MOTION_DOT = .279805E-2
MEAN_MOTION_DDOT = 0

CCSDS_OMM_VERS = 2.0
CREATION_DATE  = 
ORIGINATOR     = 

OBJECT_NAME    = STARLINK-36411
OBJECT_ID      = 2026-018V
CENTER_NAME    = EARTH
REF_FRAME      = TEME
TIME_SYSTEM    = UTC
MEAN_ELEMENT_THEORY = SGP/SGP4

EPOCH          = 2026-02-21T02:50:32.539488
MEAN_MOTION    = 15.81060791
ECCENTRICITY   = .0001739
INCLINATION    = 97.2844
RA_OF_ASC_NODE = 117.1754
ARG_OF_PERICENTER = 130.5515
MEAN_ANOMALY   = 229.5905

EPHEMERIS_TYPE = 0
CLASSIFICATION_TYPE = U
NORAD_CAT_ID   = 67608
ELEMENT_SET_NO = 999
REV_AT_EPOCH   = 470
BSTAR          = .21867E-2
MEAN_MOTION_DOT = .445786E-2
MEAN_MOTION_DDOT = 0

CCSDS_OMM_VERS = 2.0
CREATION_DATE  = 
ORIGINATOR     = 

OBJECT_NAME    = STARLINK-36312
OBJECT_ID      = 2026-018W
CENTER_NAME    = EARTH
REF_FRAME      = TEME
TIME_SYSTEM    = UTC
MEAN_ELEMENT_THEORY = SGP/SGP4

EPOCH          = 2026-02-21T03:08:30.565248
MEAN_MOTION    = 15.75341583
ECCENTRICITY   = .0001654
INCLINATION    = 97.2832
RA_OF_ASC_NODE = 117.1607
ARG_OF_PERICENTER = 123.2256
MEAN_ANOMALY   = 236.9168

EPHEMERIS_TYPE = 0
CLASSIFICATION_TYPE = U
NORAD_CAT_ID   = 67609
ELEMENT_SET_NO = 999
REV_AT_EPOCH   = 470
BSTAR          = .22111E-2
MEAN_MOTION_DOT = .345631E-2
MEAN_MOTION_DDOT = 0

CCSDS_OMM_VERS = 2.0
CREATION_DATE  = 
ORIGINATOR     = 

OBJECT_NAME    = STARLINK-36387
OBJECT_ID      = 2026-018X
CENTER_NAME    = EARTH
REF_FRAME      = TEME
TIME_SYSTEM    = UTC
MEAN_ELEMENT_THEORY = SGP/SGP4

EPOCH          = 2026-02-21T02:46:46.704576
MEAN_MOTION    = 15.80958071
ECCENTRICITY   = .0001438
INCLINATION    = 97.2853
RA_OF_ASC_NODE = 117.1788
ARG_OF_PERICENTER = 100.6250
MEAN_ANOMALY   = 259.5180

EPHEMERIS_TYPE = 0
CLASSIFICATION_TYPE = U
NORAD_CAT_ID   = 67610
ELEMENT_SET_NO = 999
REV_AT_EPOCH   = 470
BSTAR          = .12647E-2
MEAN_MOTION_DOT = .250823E-2
MEAN_MOTION_DDOT = 0

CCSDS_OMM_VERS = 2.0
CREATION_DATE  = 
ORIGINATOR     = 

OBJECT_NAME    = STARLINK-36636
OBJECT_ID      = 2026-018Y
CENTER_NAME    = EARTH
REF_FRAME      = TEME
TIME_SYSTEM    = UTC
MEAN_ELEMENT_THEORY = SGP/SGP4

EPOCH          = 2026-02-21T02:45:29.265120
MEAN_MOTION    = 15.80461123
ECCENTRICITY   = .0003726
INCLINATION    = 97.2865
RA_OF_ASC_NODE = 117.1733
ARG_OF_PERICENTER = 47.9397
MEAN_ANOMALY   = 312.2187

EPHEMERIS_TYPE = 0
CLASSIFICATION_TYPE = U
NORAD_CAT_ID   = 67611
ELEMENT_SET_NO = 999
REV_AT_EPOCH   = 470
BSTAR          = .18985E-2
MEAN_MOTION_DOT = .373487E-2
MEAN_MOTION_DDOT = 0

CCSDS_OMM_VERS = 2.0
CREATION_DATE  = 
ORIGINATOR     = 

OBJECT_NAME    = STARLINK-36407
OBJECT_ID      = 2026-018Z
CENTER_NAME    = EARTH
REF_FRAME      = TEME
TIME_SYSTEM    = UTC
MEAN_ELEMENT_THEORY = SGP/SGP4

EPOCH          = 2026-02-21T04:00:01.999584
MEAN_MOTION    = 15.75234452
ECCENTRICITY   = .0001219
INCLINATION    = 97.2843
RA_OF_ASC_NODE = 117.2158
ARG_OF_PERICENTER = 89.0120
MEAN_ANOMALY   = 149.8827

EPHEMERIS_TYPE = 0
CLASSIFICATION_TYPE = U
NORAD_CAT_ID   = 67612
ELEMENT_SET_NO = 999
REV_AT_EPOCH   = 479
BSTAR          = -.58087E-3
MEAN_MOTION_DOT = -.86068E-3
MEAN_MOTION_DDOT = 0

CCSDS_OMM_VERS = 2.0
CREATION_DATE  = 
ORIGINATOR     = 

OBJECT_NAME    = STARLINK-36597
OBJECT_ID      = 2026-018AA
CENTER_NAME    = EARTH
REF_FRAME      = TEME
TIME_SYSTEM    = UTC
MEAN_ELEMENT_THEORY = SGP/SGP4

EPOCH          = 2026-02-21T02:42:26.635392
MEAN_MOTION    = 15.81034939
ECCENTRICITY   = .0001268
INCLINATION    = 97.2850
RA_OF_ASC_NODE = 117.1817
ARG_OF_PERICENTER = 96.7743
MEAN_ANOMALY   = 263.3670

EPHEMERIS_TYPE = 0
CLASSIFICATION_TYPE = U
NORAD_CAT_ID   = 67613
ELEMENT_SET_NO = 999
REV_AT_EPOCH   = 470
BSTAR          = .2198E-2
MEAN_MOTION_DOT = .447682E-2
MEAN_MOTION_DDOT = 0

CCSDS_OMM_VERS = 2.0
CREATION_DATE  = 
ORIGINATOR     = 

OBJECT_NAME    = NEONSAT-1A
OBJECT_ID      = 2026-019A
CENTER_NAME    = EARTH
REF_FRAME      = TEME
TIME_SYSTEM    = UTC
MEAN_ELEMENT_THEORY = SGP/SGP4

EPOCH          = 2026-02-20T22:07:50.636640
MEAN_MOTION    = 15.07642742
ECCENTRICITY   = .0012275
INCLINATION    = 97.4103
RA_OF_ASC_NODE = 176.1018
ARG_OF_PERICENTER = 227.1141
MEAN_ANOMALY   = 132.9058

EPHEMERIS_TYPE = 0
CLASSIFICATION_TYPE = U
NORAD_CAT_ID   = 67614
ELEMENT_SET_NO = 999
REV_AT_EPOCH   = 329
BSTAR          = .20666E-3
MEAN_MOTION_DOT = .3093E-4
MEAN_MOTION_DDOT = 0

CCSDS_OMM_VERS = 2.0
CREATION_DATE  = 
ORIGINATOR     = 

OBJECT_NAME    = ELECTRON KICK STAGE R/B
OBJECT_ID      = 2026-019C
CENTER_NAME    = EARTH
REF_FRAME      = TEME
TIME_SYSTEM    = UTC
MEAN_ELEMENT_THEORY = SGP/SGP4

EPOCH          = 2026-02-20T21:21:15.854112
MEAN_MOTION    = 15.69228339
ECCENTRICITY   = .0159365
INCLINATION    = 97.4029
RA_OF_ASC_NODE = 177.8203
ARG_OF_PERICENTER = 183.2343
MEAN_ANOMALY   = 176.7905

EPHEMERIS_TYPE = 0
CLASSIFICATION_TYPE = U
NORAD_CAT_ID   = 67616
ELEMENT_SET_NO = 999
REV_AT_EPOCH   = 340
BSTAR          = .19336E-2
MEAN_MOTION_DOT = .4739E-2
MEAN_MOTION_DDOT = .6947E-4

CCSDS_OMM_VERS = 2.0
CREATION_DATE  = 
ORIGINATOR     = 

OBJECT_NAME    = STARLINK-36548
OBJECT_ID      = 2026-020A
CENTER_NAME    = EARTH
REF_FRAME      = TEME
TIME_SYSTEM    = UTC
MEAN_ELEMENT_THEORY = SGP/SGP4

EPOCH          = 2026-02-20T21:23:28.448736
MEAN_MOTION    = 15.76693958
ECCENTRICITY   = .0002599
INCLINATION    = 42.9978
RA_OF_ASC_NODE = 244.3767
ARG_OF_PERICENTER = 275.3467
MEAN_ANOMALY   = 84.7107

EPHEMERIS_TYPE = 0
CLASSIFICATION_TYPE = U
NORAD_CAT_ID   = 67617
ELEMENT_SET_NO = 999
REV_AT_EPOCH   = 343
BSTAR          = .24423E-2
MEAN_MOTION_DOT = .423859E-2
MEAN_MOTION_DDOT = 0

CCSDS_OMM_VERS = 2.0
CREATION_DATE  = 
ORIGINATOR     = 

OBJECT_NAME    = STARLINK-36601
OBJECT_ID      = 2026-020B
CENTER_NAME    = EARTH
REF_FRAME      = TEME
TIME_SYSTEM    = UTC
MEAN_ELEMENT_THEORY = SGP/SGP4

EPOCH          = 2026-02-20T12:51:52.224768
MEAN_MOTION    = 15.82038173
ECCENTRICITY   = .00018232
INCLINATION    = 42.9977
RA_OF_ASC_NODE = 245.9900
ARG_OF_PERICENTER = 252.4752
MEAN_ANOMALY   = 107.5921

EPHEMERIS_TYPE = 0
CLASSIFICATION_TYPE = U
NORAD_CAT_ID   = 67618
ELEMENT_SET_NO = 999
REV_AT_EPOCH   = 338
BSTAR          = .2133931E-2
MEAN_MOTION_DOT = .474833E-2
MEAN_MOTION_DDOT = 0

